STARLINK-35293          
1 66012U 25232H   26086.80671176  .00029141  00000+0  99161-3 0  9992
2 66012  53.1623  19.4524 0002004 112.5974 247.5239 15.30217279 26217
STARLINK-35307          
1 66013U 25232J   26086.05564468  .00030878  00000+0  10499-2 0  9990
2 66013  53.1594  23.3005 0001026  92.6433 267.4685 15.30213222 26090
STARLINK-35395          
1 66014U 25232K   26086.82569980  .00025065  00000+0  85497-3 0  9993
2 66014  53.1610  19.5727 0001295 111.2034 248.9105 15.30221888 26213
STARLINK-34622          
1 66015U 25232L   26086.52551340  .00022813  00000+0  78022-3 0  9996
2 66015  53.1613  21.2467 0001454  94.0779 266.0388 15.30190455 26151
STARLINK-35243          
1 66016U 25232M   26086.53184656  .00023286  00000+0  79566-3 0  9999
2 66016  53.1616  21.2863 0001608  88.5509 271.5676 15.30208410 26168
STARLINK-35398          
1 66017U 25232N   26086.51600623  .00033408  00000+0  11339-2 0  9995
2 66017  53.1602  21.1925 0001101  90.9848 269.1279 15.30232483 26162
STARLINK-35376          
1 66018U 25232P   26086.79521644  .00021877  00000+0  74828-3 0  9991
2 66018  53.1624  20.0910 0001912  76.3522 283.7691 15.30212386 26201
STARLINK-35382          
1 66019U 25232Q   26086.52129291  .00019651  00000+0  67397-3 0  9995
2 66019  53.1615  21.2214 0001338  85.8157 274.2996 15.30194085 26166
STARLINK-35430          
1 66020U 25232R   26086.82886713  .00033202  00000+0  11275-2 0  9990
2 66020  53.1598  19.5920 0001282  89.2932 270.8216 15.30217236 26193
STARLINK-35432          
1 66021U 25232S   26086.83520091  .00025654  00000+0  87502-3 0  9995
2 66021  53.1614  19.6320 0001616 107.0686 253.0492 15.30210644 26212
STARLINK-35340          
1 66022U 25232T   26086.23470498  .00026599  00000+0  90688-3 0  9993
2 66022  53.1616  22.2795 0001300  86.0680 274.0470 15.30203325 26128
STARLINK-35394          
1 66023U 25232U   26086.22837248  .00031290  00000+0  10638-2 0  9993
2 66023  53.1617  22.2425 0001109  84.6383 275.4745 15.30210000 26129
STARLINK-35410          
1 66024U 25232V   26086.54123070  .00020557  00000+0  70414-3 0  9993
2 66024  53.1626  20.6350 0001559  85.5230 274.5948 15.30205927 26171
STARLINK-35280          
1 66025U 25232W   26086.80987720  .00039329  00000+0  13328-2 0  9990
2 66025  53.1625  19.4679 0001707  95.9877 264.1318 15.30205352 26211
STARLINK-34812          
1 66026U 25232X   26086.53712284  .00024677  00000+0  84216-3 0  9997
2 66026  53.1622  21.3191 0001354  88.7907 271.3249 15.30214101 26150
STARLINK-35341          
1 66027U 25232Y   26086.79626613  .00020034  00000+0  68661-3 0  9995
2 66027  53.1620  20.0900 0001389  75.3665 284.7490 15.30205313 26201
STARLINK-35339          
1 66028U 25232Z   26086.19577278  .00027440  00000+0  93491-3 0  9999
2 66028  53.1605  22.7387 0000978  82.7743 277.3369 15.30209370 26115
