[{"OBJECT_NAME":"STARLINK-35293","OBJECT_ID":"2025-232H","EPOCH":"2026-03-27T19:21:39.896064","MEAN_MOTION":15.30217279,"ECCENTRICITY":0.0002004,"INCLINATION":53.1623,"RA_OF_ASC_NODE":19.4524,"ARG_OF_PERICENTER":112.5974,"MEAN_ANOMALY":247.5239,"EPHEMERIS_TYPE":0,"CLASSIFICATION_TYPE":"U","NORAD_CAT_ID":66012,"ELEMENT_SET_NO":999,"REV_AT_EPOCH":2621,"BSTAR":0.00099161,"MEAN_MOTION_DOT":0.00029141,"MEAN_MOTION_DDOT":0},{"OBJECT_NAME":"STARLINK-35307","OBJECT_ID":"2025-232J","EPOCH":"2026-03-27T01:20:07.700352","MEAN_MOTION":15.30213222,"ECCENTRICITY":0.00010266,"INCLINATION":53.1594,"RA_OF_ASC_NODE":23.3005,"ARG_OF_PERICENTER":92.6433,"MEAN_ANOMALY":267.4685,"EPHEMERIS_TYPE":0,"CLASSIFICATION_TYPE":"U","NORAD_CAT_ID":66013,"ELEMENT_SET_NO":999,"REV_AT_EPOCH":2609,"BSTAR":0.0010499203,"MEAN_MOTION_DOT":0.00030878,"MEAN_MOTION_DDOT":0},{"OBJECT_NAME":"STARLINK-35395","OBJECT_ID":"2025-232K","EPOCH":"2026-03-27T19:49:00.462720","MEAN_MOTION":15.30221888,"ECCENTRICITY":0.0001295,"INCLINATION":53.161,"RA_OF_ASC_NODE":19.5727,"ARG_OF_PERICENTER":111.2034,"MEAN_ANOMALY":248.9105,"EPHEMERIS_TYPE":0,"CLASSIFICATION_TYPE":"U","NORAD_CAT_ID":66014,"ELEMENT_SET_NO":999,"REV_AT_EPOCH":2621,"BSTAR":0.00085497,"MEAN_MOTION_DOT":0.00025065,"MEAN_MOTION_DDOT":0},{"OBJECT_NAME":"STARLINK-34622","OBJECT_ID":"2025-232L","EPOCH":"2026-03-27T12:36:44.357760","MEAN_MOTION":15.30190455,"ECCENTRICITY":0.0001454,"INCLINATION":53.1613,"RA_OF_ASC_NODE":21.2467,"ARG_OF_PERICENTER":94.0779,"MEAN_ANOMALY":266.0388,"EPHEMERIS_TYPE":0,"CLASSIFICATION_TYPE":"U","NORAD_CAT_ID":66015,"ELEMENT_SET_NO":999,"REV_AT_EPOCH":2615,"BSTAR":0.00078022,"MEAN_MOTION_DOT":0.00022813,"MEAN_MOTION_DDOT":0},{"OBJECT_NAME":"STARLINK-35243","OBJECT_ID":"2025-232M","EPOCH":"2026-03-27T12:45:51.542784","MEAN_MOTION":15.3020841,"ECCENTRICITY":0.0001608,"INCLINATION":53.1616,"RA_OF_ASC_NODE":21.2863,"ARG_OF_PERICENTER":88.5509,"MEAN_ANOMALY":271.5676,"EPHEMERIS_TYPE":0,"CLASSIFICATION_TYPE":"U","NORAD_CAT_ID":66016,"ELEMENT_SET_NO":999,"REV_AT_EPOCH":2616,"BSTAR":0.00079566,"MEAN_MOTION_DOT":0.00023286,"MEAN_MOTION_DDOT":0},{"OBJECT_NAME":"STARLINK-35398","OBJECT_ID":"2025-232N","EPOCH":"2026-03-27T12:23:02.938272","MEAN_MOTION":15.30232483,"ECCENTRICITY":0.0001101,"INCLINATION":53.1602,"RA_OF_ASC_NODE":21.1925,"ARG_OF_PERICENTER":90.9848,"MEAN_ANOMALY":269.1279,"EPHEMERIS_TYPE":0,"CLASSIFICATION_TYPE":"U","NORAD_CAT_ID":66017,"ELEMENT_SET_NO":999,"REV_AT_EPOCH":2616,"BSTAR":0.0011339,"MEAN_MOTION_DOT":0.00033408,"MEAN_MOTION_DDOT":0},{"OBJECT_NAME":"STARLINK-35376","OBJECT_ID":"2025-232P","EPOCH":"2026-03-27T19:05:06.700416","MEAN_MOTION":15.30212386,"ECCENTRICITY":0.0001912,"INCLINATION":53.1624,"RA_OF_ASC_NODE":20.091,"ARG_OF_PERICENTER":76.3522,"MEAN_ANOMALY":283.7691,"EPHEMERIS_TYPE":0,"CLASSIFICATION_TYPE":"U","NORAD_CAT_ID":66018,"ELEMENT_SET_NO":999,"REV_AT_EPOCH":2620,"BSTAR":0.00074828,"MEAN_MOTION_DOT":0.00021877,"MEAN_MOTION_DDOT":0},{"OBJECT_NAME":"STARLINK-35382","OBJECT_ID":"2025-232Q","EPOCH":"2026-03-27T12:30:39.707424","MEAN_MOTION":15.30194085,"ECCENTRICITY":0.0001338,"INCLINATION":53.1615,"RA_OF_ASC_NODE":21.2214,"ARG_OF_PERICENTER":85.8157,"MEAN_ANOMALY":274.2996,"EPHEMERIS_TYPE":0,"CLASSIFICATION_TYPE":"U","NORAD_CAT_ID":66019,"ELEMENT_SET_NO":999,"REV_AT_EPOCH":2616,"BSTAR":0.00067397,"MEAN_MOTION_DOT":0.00019651,"MEAN_MOTION_DDOT":0},{"OBJECT_NAME":"STARLINK-35430","OBJECT_ID":"2025-232R","EPOCH":"2026-03-27T19:53:34.119168","MEAN_MOTION":15.30217236,"ECCENTRICITY":0.0001283,"INCLINATION":53.1598,"RA_OF_ASC_NODE":19.592,"ARG_OF_PERICENTER":89.2932,"MEAN_ANOMALY":270.8216,"EPHEMERIS_TYPE":0,"CLASSIFICATION_TYPE":"U","NORAD_CAT_ID":66020,"ELEMENT_SET_NO":999,"REV_AT_EPOCH":2619,"BSTAR":0.0011275,"MEAN_MOTION_DOT":0.00033202,"MEAN_MOTION_DDOT":0},{"OBJECT_NAME":"STARLINK-35432","OBJECT_ID":"2025-232S","EPOCH":"2026-03-27T20:02:41.357760","MEAN_MOTION":15.30210644,"ECCENTRICITY":0.0001616,"INCLINATION":53.1614,"RA_OF_ASC_NODE":19.632,"ARG_OF_PERICENTER":107.0686,"MEAN_ANOMALY":253.0492,"EPHEMERIS_TYPE":0,"CLASSIFICATION_TYPE":"U","NORAD_CAT_ID":66021,"ELEMENT_SET_NO":999,"REV_AT_EPOCH":2621,"BSTAR":0.00087502,"MEAN_MOTION_DOT":0.00025654,"MEAN_MOTION_DDOT":0},{"OBJECT_NAME":"STARLINK-35340","OBJECT_ID":"2025-232T","EPOCH":"2026-03-27T05:37:58.510272","MEAN_MOTION":15.30203325,"ECCENTRICITY":0.00013,"INCLINATION":53.1616,"RA_OF_ASC_NODE":22.2795,"ARG_OF_PERICENTER":86.068,"MEAN_ANOMALY":274.047,"EPHEMERIS_TYPE":0,"CLASSIFICATION_TYPE":"U","NORAD_CAT_ID":66022,"ELEMENT_SET_NO":999,"REV_AT_EPOCH":2612,"BSTAR":0.00090688,"MEAN_MOTION_DOT":0.00026599,"MEAN_MOTION_DDOT":0},{"OBJECT_NAME":"STARLINK-35394","OBJECT_ID":"2025-232U","EPOCH":"2026-03-27T05:28:51.382272","MEAN_MOTION":15.3021,"ECCENTRICITY":0.0001109,"INCLINATION":53.1617,"RA_OF_ASC_NODE":22.2425,"ARG_OF_PERICENTER":84.6383,"MEAN_ANOMALY":275.4745,"EPHEMERIS_TYPE":0,"CLASSIFICATION_TYPE":"U","NORAD_CAT_ID":66023,"ELEMENT_SET_NO":999,"REV_AT_EPOCH":2612,"BSTAR":0.0010638,"MEAN_MOTION_DOT":0.0003129,"MEAN_MOTION_DDOT":0},{"OBJECT_NAME":"STARLINK-35410","OBJECT_ID":"2025-232V","EPOCH":"2026-03-27T12:59:22.332480","MEAN_MOTION":15.30205927,"ECCENTRICITY":0.0001559,"INCLINATION":53.1626,"RA_OF_ASC_NODE":20.635,"ARG_OF_PERICENTER":85.523,"MEAN_ANOMALY":274.5948,"EPHEMERIS_TYPE":0,"CLASSIFICATION_TYPE":"U","NORAD_CAT_ID":66024,"ELEMENT_SET_NO":999,"REV_AT_EPOCH":2617,"BSTAR":0.00070414,"MEAN_MOTION_DOT":0.00020557,"MEAN_MOTION_DDOT":0},{"OBJECT_NAME":"STARLINK-35280","OBJECT_ID":"2025-232W","EPOCH":"2026-03-27T19:26:13.390080","MEAN_MOTION":15.30205352,"ECCENTRICITY":0.0001708,"INCLINATION":53.1625,"RA_OF_ASC_NODE":19.4679,"ARG_OF_PERICENTER":95.9877,"MEAN_ANOMALY":264.1318,"EPHEMERIS_TYPE":0,"CLASSIFICATION_TYPE":"U","NORAD_CAT_ID":66025,"ELEMENT_SET_NO":999,"REV_AT_EPOCH":2621,"BSTAR":0.0013328,"MEAN_MOTION_DOT":0.00039329,"MEAN_MOTION_DDOT":0},{"OBJECT_NAME":"STARLINK-34812","OBJECT_ID":"2025-232X","EPOCH":"2026-03-27T12:53:27.413376","MEAN_MOTION":15.30214101,"ECCENTRICITY":0.0001354,"INCLINATION":53.1622,"RA_OF_ASC_NODE":21.3191,"ARG_OF_PERICENTER":88.7907,"MEAN_ANOMALY":271.3249,"EPHEMERIS_TYPE":0,"CLASSIFICATION_TYPE":"U","NORAD_CAT_ID":66026,"ELEMENT_SET_NO":999,"REV_AT_EPOCH":2615,"BSTAR":0.00084216,"MEAN_MOTION_DOT":0.00024677,"MEAN_MOTION_DDOT":0},{"OBJECT_NAME":"STARLINK-35341","OBJECT_ID":"2025-232Y","EPOCH":"2026-03-27T19:06:37.392768","MEAN_MOTION":15.30205313,"ECCENTRICITY":0.0001389,"INCLINATION":53.162,"RA_OF_ASC_NODE":20.09,"ARG_OF_PERICENTER":75.3665,"MEAN_ANOMALY":284.749,"EPHEMERIS_TYPE":0,"CLASSIFICATION_TYPE":"U","NORAD_CAT_ID":66027,"ELEMENT_SET_NO":999,"REV_AT_EPOCH":2620,"BSTAR":0.00068661,"MEAN_MOTION_DOT":0.00020034,"MEAN_MOTION_DDOT":0},{"OBJECT_NAME":"STARLINK-35339","OBJECT_ID":"2025-232Z","EPOCH":"2026-03-27T04:41:54.768192","MEAN_MOTION":15.3020937,"ECCENTRICITY":9.785e-5,"INCLINATION":53.1605,"RA_OF_ASC_NODE":22.7387,"ARG_OF_PERICENTER":82.7743,"MEAN_ANOMALY":277.3369,"EPHEMERIS_TYPE":0,"CLASSIFICATION_TYPE":"U","NORAD_CAT_ID":66028,"ELEMENT_SET_NO":999,"REV_AT_EPOCH":2611,"BSTAR":0.00093491219,"MEAN_MOTION_DOT":0.0002744,"MEAN_MOTION_DDOT":0}]
